[{"OBJECT_NAME":"UNISAT-6","OBJECT_ID":"2014-033C","EPOCH":"2026-03-09T22:37:09.123744","MEAN_MOTION":14.87640019,"ECCENTRICITY":0.00460496,"INCLINATION":97.7728,"RA_OF_ASC_NODE":223.5167,"ARG_OF_PERICENTER":36.9255,"MEAN_ANOMALY":323.5117,"EPHEMERIS_TYPE":0,"CLASSIFICATION_TYPE":"U","NORAD_CAT_ID":40012,"ELEMENT_SET_NO":999,"REV_AT_EPOCH":63140,"BSTAR":0.00041207686,"MEAN_MOTION_DOT":3.766e-5,"MEAN_MOTION_DDOT":0},{"OBJECT_NAME":"STARLINK-34275","OBJECT_ID":"2025-129B","EPOCH":"2026-03-09T09:40:02.390880","MEAN_MOTION":14.9832652,"ECCENTRICITY":0.00036514,"INCLINATION":70.0009,"RA_OF_ASC_NODE":75.2092,"ARG_OF_PERICENTER":265.5021,"MEAN_ANOMALY":94.5721,"EPHEMERIS_TYPE":0,"CLASSIFICATION_TYPE":"U","NORAD_CAT_ID":64413,"ELEMENT_SET_NO":999,"REV_AT_EPOCH":4124,"BSTAR":-0.00018101844,"MEAN_MOTION_DOT":-2.252e-5,"MEAN_MOTION_DDOT":0}]
